[{"OBJECT_NAME":"STARLINK-2322","OBJECT_ID":"2021-018E","EPOCH":"2026-03-09T17:41:23.377632","MEAN_MOTION":15.30189436,"ECCENTRICITY":0.00010126,"INCLINATION":53.1594,"RA_OF_ASC_NODE":242.7255,"ARG_OF_PERICENTER":92.6426,"MEAN_ANOMALY":267.4691,"EPHEMERIS_TYPE":0,"CLASSIFICATION_TYPE":"U","NORAD_CAT_ID":47791,"ELEMENT_SET_NO":999,"REV_AT_EPOCH":27674,"BSTAR":-8.5114396e-5,"MEAN_MOTION_DOT":-2.878e-5,"MEAN_MOTION_DDOT":0},{"OBJECT_NAME":"SCS-01 M","OBJECT_ID":"2025-100M","EPOCH":"2026-03-09T23:50:15.541152","MEAN_MOTION":15.31880861,"ECCENTRICITY":0.00078021,"INCLINATION":97.3725,"RA_OF_ASC_NODE":145.6908,"ARG_OF_PERICENTER":292.3826,"MEAN_ANOMALY":67.6588,"EPHEMERIS_TYPE":0,"CLASSIFICATION_TYPE":"U","NORAD_CAT_ID":63993,"ELEMENT_SET_NO":999,"REV_AT_EPOCH":4565,"BSTAR":0.0012010051,"MEAN_MOTION_DOT":0.00037061,"MEAN_MOTION_DDOT":0}]
